start=new Date('2022-11-08T00:00:00.000Z').valueOf();
sats=[{"MEAN_ELEMENT_THEORY":"SGP4","TLE_LINE1":"1 48463U 21040AM  22311.13017256  .00001020  00000-0  87380-4 0  9999","RCS_SIZE":"LARGE","SEMIMAJOR_AXIS":"6925.388","ECCENTRICITY":"0.00014950","BSTAR":"0.00008738000000","OBJECT_TYPE":"PAYLOAD","DECAY_DATE":null,"REF_FRAME":"TEME","EPOCH":"2022-11-07T03:07:26.909184","INCLINATION":"53.0545","MEAN_ANOMALY":"298.3057","TLE_LINE2":"2 48463  53.0545 261.9574 0001495  61.8082 298.3057 15.06387091 82832","SITE":"AFETR","PERIOD":"95.593","MEAN_MOTION_DOT":"0.00001020","CLASSIFICATION_TYPE":"U","NORAD_CAT_ID":"48463","MEAN_MOTION_DDOT":"0.0000000000000","OBJECT_NAME":"STARLINK-2689","REV_AT_EPOCH":"8283","TIME_SYSTEM":"UTC","RA_OF_ASC_NODE":"261.9574","COUNTRY_CODE":"US","EPHEMERIS_TYPE":"0","OBJECT_ID":"2021-040AM","CENTER_NAME":"EARTH","PERIAPSIS":"546.218","MEAN_MOTION":"15.06387091","FILE":"3648233","ARG_OF_PERICENTER":"61.8082","ELEMENT_SET_NO":"999","GP_ID":"217105544","APOAPSIS":"548.288","LAUNCH_DATE":"2021-05-09"},{"TLE_LINE2":"2 48464  53.0537 258.7728 0001926  49.1332 310.9824 15.06381566 82930","MEAN_ANOMALY":"310.9824","INCLINATION":"53.0537","EPOCH":"2022-11-07T20:07:54.013440","REF_FRAME":"TEME","DECAY_DATE":null,"OBJECT_TYPE":"PAYLOAD","BSTAR":"0.00027309000000","ECCENTRICITY":"0.00019260","TLE_LINE1":"1 48464U 21040AN  22311.83881960  .00003786  00000-0  27309-3 0  9993","RCS_SIZE":"MEDIUM","SEMIMAJOR_AXIS":"6925.405","MEAN_ELEMENT_THEORY":"SGP4","MEAN_MOTION_DDOT":"0.0000000000000","OBJECT_NAME":"STARLINK-2686","CLASSIFICATION_TYPE":"U","NORAD_CAT_ID":"48464","MEAN_MOTION_DOT":"0.00003786","PERIOD":"95.593","SITE":"AFETR","OBJECT_ID":"2021-040AN","EPHEMERIS_TYPE":"0","COUNTRY_CODE":"US","TIME_SYSTEM":"UTC","RA_OF_ASC_NODE":"258.7728","REV_AT_EPOCH":"8293","LAUNCH_DATE":"2021-05-09","APOAPSIS":"548.604","GP_ID":"217104291","ELEMENT_SET_NO":"999","ARG_OF_PERICENTER":"49.1332","FILE":"3648233","PERIAPSIS":"545.936","MEAN_MOTION":"15.06381566","CENTER_NAME":"EARTH"},{"EPHEMERIS_TYPE":"0","OBJECT_ID":"2021-040AP","REV_AT_EPOCH":"8294","TIME_SYSTEM":"UTC","RA_OF_ASC_NODE":"258.7075","COUNTRY_CODE":"US","ELEMENT_SET_NO":"999","GP_ID":"217104542","APOAPSIS":"548.494","LAUNCH_DATE":"2021-05-09","CENTER_NAME":"EARTH","PERIAPSIS":"545.980","MEAN_MOTION":"15.06392409","FILE":"3648233","ARG_OF_PERICENTER":"40.5690","INCLINATION":"53.0537","MEAN_ANOMALY":"319.5434","TLE_LINE2":"2 48465  53.0537 258.7075 0001815  40.5690 319.5434 15.06392409 82946","MEAN_ELEMENT_THEORY":"SGP4","ECCENTRICITY":"0.00018150","TLE_LINE1":"1 48465U 21040AP  22311.84988058  .00004738  00000-0  33686-3 0  9994","RCS_SIZE":"LARGE","SEMIMAJOR_AXIS":"6925.372","BSTAR":"0.00033686000000","OBJECT_TYPE":"PAYLOAD","DECAY_DATE":null,"EPOCH":"2022-11-07T20:23:49.682112","REF_FRAME":"TEME","PERIOD":"95.593","MEAN_MOTION_DOT":"0.00004738","NORAD_CAT_ID":"48465","CLASSIFICATION_TYPE":"U","OBJECT_NAME":"STARLINK-2681","MEAN_MOTION_DDOT":"0.0000000000000","SITE":"AFETR"},{"MEAN_ANOMALY":"320.4278","INCLINATION":"53.0540","TLE_LINE2":"2 48466  53.0540 259.9745 0002280  39.6878 320.4278 15.06398666 82906","MEAN_ELEMENT_THEORY":"SGP4","TLE_LINE1":"1 48466U 21040AQ  22311.56974719  .00004055  00000-0  29100-3 0  9991","ECCENTRICITY":"0.00022800","RCS_SIZE":"LARGE","SEMIMAJOR_AXIS":"6925.353","BSTAR":"0.00029100000000","OBJECT_TYPE":"PAYLOAD","EPOCH":"2022-11-07T13:40:26.157216","REF_FRAME":"TEME","DECAY_DATE":null,"PERIOD":"95.592","CLASSIFICATION_TYPE":"U","NORAD_CAT_ID":"48466","MEAN_MOTION_DOT":"0.00004055","MEAN_MOTION_DDOT":"0.0000000000000","OBJECT_NAME":"STARLINK-2687","SITE":"AFETR","EPHEMERIS_TYPE":"0","OBJECT_ID":"2021-040AQ","REV_AT_EPOCH":"8290","RA_OF_ASC_NODE":"259.9745","TIME_SYSTEM":"UTC","COUNTRY_CODE":"US","GP_ID":"217105793","ELEMENT_SET_NO":"999","APOAPSIS":"548.797","LAUNCH_DATE":"2021-05-09","PERIAPSIS":"545.639","MEAN_MOTION":"15.06398666","CENTER_NAME":"EARTH","FILE":"3648233","ARG_OF_PERICENTER":"39.6878"},{"ARG_OF_PERICENTER":"60.0848","FILE":"3648233","PERIAPSIS":"545.915","MEAN_MOTION":"15.06393995","CENTER_NAME":"EARTH","LAUNCH_DATE":"2021-05-09","APOAPSIS":"548.549","GP_ID":"217106044","ELEMENT_SET_NO":"999","COUNTRY_CODE":"US","RA_OF_ASC_NODE":"258.6754","TIME_SYSTEM":"UTC","REV_AT_EPOCH":"8294","OBJECT_ID":"2021-040AR","EPHEMERIS_TYPE":"0","SITE":"AFETR","MEAN_MOTION_DDOT":"0.0000000000000","OBJECT_NAME":"STARLINK-2659","CLASSIFICATION_TYPE":"U","NORAD_CAT_ID":"48467","MEAN_MOTION_DOT":"0.00002613","PERIOD":"95.593","REF_FRAME":"TEME","EPOCH":"2022-11-07T20:39:44.694144","DECAY_DATE":null,"OBJECT_TYPE":"PAYLOAD","BSTAR":"0.00019431000000","ECCENTRICITY":"0.00019020","TLE_LINE1":"1 48467U 21040AR  22311.86093396  .00002613  00000-0  19431-3 0  9992","RCS_SIZE":"LARGE","SEMIMAJOR_AXIS":"6925.367","MEAN_ELEMENT_THEORY":"SGP4","TLE_LINE2":"2 48467  53.0558 258.6754 0001902  60.0848 300.0330 15.06393995 82944","MEAN_ANOMALY":"300.0330","INCLINATION":"53.0558"},{"TLE_LINE2":"2 48468  53.0559 259.9523 0001935  53.2657 306.8510 15.06386994 82903","INCLINATION":"53.0559","MEAN_ANOMALY":"306.8510","DECAY_DATE":null,"REF_FRAME":"TEME","EPOCH":"2022-11-07T13:51:02.606400","BSTAR":"-0.00008141500000","OBJECT_TYPE":"PAYLOAD","RCS_SIZE":"LARGE","TLE_LINE1":"1 48468U 21040AS  22311.57711350 -.00001494  00000-0 -81415-4 0  9998","ECCENTRICITY":"0.00019350","SEMIMAJOR_AXIS":"6925.388","MEAN_ELEMENT_THEORY":"SGP4","OBJECT_NAME":"STARLINK-2685","MEAN_MOTION_DDOT":"0.0000000000000","MEAN_MOTION_DOT":"-0.00001494","CLASSIFICATION_TYPE":"U","NORAD_CAT_ID":"48468","PERIOD":"95.593","SITE":"AFETR","OBJECT_ID":"2021-040AS","EPHEMERIS_TYPE":"0","COUNTRY_CODE":"US","TIME_SYSTEM":"UTC","RA_OF_ASC_NODE":"259.9523","REV_AT_EPOCH":"8290","LAUNCH_DATE":"2021-05-09","APOAPSIS":"548.593","ELEMENT_SET_NO":"999","GP_ID":"217104792","ARG_OF_PERICENTER":"53.2657","FILE":"3648233","CENTER_NAME":"EARTH","MEAN_MOTION":"15.06386994","PERIAPSIS":"545.913"},{"PERIOD":"95.593","NORAD_CAT_ID":"48469","CLASSIFICATION_TYPE":"U","MEAN_MOTION_DOT":"0.00004938","MEAN_MOTION_DDOT":"0.0000000000000","OBJECT_NAME":"STARLINK-2661","SITE":"AFETR","MEAN_ANOMALY":"306.4352","INCLINATION":"53.0542","TLE_LINE2":"2 48469  53.0542 258.6750 0001749  53.6798 306.4352 15.06384517 82940","MEAN_ELEMENT_THEORY":"SGP4","TLE_LINE1":"1 48469U 21040AT  22311.85725198  .00004938  00000-0  35030-3 0  9990","RCS_SIZE":"LARGE","SEMIMAJOR_AXIS":"6925.396","ECCENTRICITY":"0.00017490","OBJECT_TYPE":"PAYLOAD","BSTAR":"0.00035030000000","REF_FRAME":"TEME","EPOCH":"2022-11-07T20:34:26.571072","DECAY_DATE":null,"GP_ID":"217105042","ELEMENT_SET_NO":"999","APOAPSIS":"548.472","LAUNCH_DATE":"2021-05-09","PERIAPSIS":"546.050","MEAN_MOTION":"15.06384517","CENTER_NAME":"EARTH","FILE":"3648233","ARG_OF_PERICENTER":"53.6798","EPHEMERIS_TYPE":"0","OBJECT_ID":"2021-040AT","REV_AT_EPOCH":"8294","RA_OF_ASC_NODE":"258.6750","TIME_SYSTEM":"UTC","COUNTRY_CODE":"US"},{"GP_ID":"217105294","ELEMENT_SET_NO":"999","APOAPSIS":"548.775","LAUNCH_DATE":"2021-05-09","PERIAPSIS":"545.738","MEAN_MOTION":"15.06385917","CENTER_NAME":"EARTH","FILE":"3648233","ARG_OF_PERICENTER":"40.1983","EPHEMERIS_TYPE":"0","OBJECT_ID":"2021-040AU","REV_AT_EPOCH":"8293","TIME_SYSTEM":"UTC","RA_OF_ASC_NODE":"258.6991","COUNTRY_CODE":"US","PERIOD":"95.593","NORAD_CAT_ID":"48470","CLASSIFICATION_TYPE":"U","MEAN_MOTION_DOT":"0.00003073","MEAN_MOTION_DDOT":"0.0000000000000","OBJECT_NAME":"STARLINK-2675","SITE":"AFETR","MEAN_ANOMALY":"319.9168","INCLINATION":"53.0554","TLE_LINE2":"2 48470  53.0554 258.6991 0002193  40.1983 319.9168 15.06385917 82931","MEAN_ELEMENT_THEORY":"SGP4","TLE_LINE1":"1 48470U 21040AU  22311.85262288  .00003073  00000-0  22523-3 0  9990","RCS_SIZE":"LARGE","SEMIMAJOR_AXIS":"6925.392","ECCENTRICITY":"0.00021930","BSTAR":"0.00022523000000","OBJECT_TYPE":"PAYLOAD","EPOCH":"2022-11-07T20:27:46.616832","REF_FRAME":"TEME","DECAY_DATE":null},{"REF_FRAME":"TEME","EPOCH":"2022-11-07T20:18:30.835008","DECAY_DATE":null,"BSTAR":"0.00043005000000","OBJECT_TYPE":"PAYLOAD","RCS_SIZE":"LARGE","TLE_LINE1":"1 48471U 21040AV  22311.84619022  .00006130  00000-0  43005-3 0  9997","SEMIMAJOR_AXIS":"6925.340","ECCENTRICITY":"0.00017060","MEAN_ELEMENT_THEORY":"SGP4","TLE_LINE2":"2 48471  53.0536 258.7220 0001706  56.1406 303.9745 15.06402924 82936","MEAN_ANOMALY":"303.9745","INCLINATION":"53.0536","SITE":"AFETR","MEAN_MOTION_DDOT":"0.0000000000000","OBJECT_NAME":"STARLINK-2684","CLASSIFICATION_TYPE":"U","NORAD_CAT_ID":"48471","MEAN_MOTION_DOT":"0.00006130","PERIOD":"95.592","COUNTRY_CODE":"US","TIME_SYSTEM":"UTC","RA_OF_ASC_NODE":"258.7220","REV_AT_EPOCH":"8293","OBJECT_ID":"2021-040AV","EPHEMERIS_TYPE":"0","ARG_OF_PERICENTER":"56.1406","FILE":"3648233","PERIAPSIS":"546.023","MEAN_MOTION":"15.06402924","CENTER_NAME":"EARTH","LAUNCH_DATE":"2021-05-09","APOAPSIS":"548.386","GP_ID":"217105545","ELEMENT_SET_NO":"999"},{"APOAPSIS":"548.520","ELEMENT_SET_NO":"999","GP_ID":"217104292","LAUNCH_DATE":"2021-05-09","FILE":"3648233","CENTER_NAME":"EARTH","PERIAPSIS":"545.896","MEAN_MOTION":"15.06401849","ARG_OF_PERICENTER":"47.5873","EPHEMERIS_TYPE":"0","OBJECT_ID":"2021-040AW","TIME_SYSTEM":"UTC","RA_OF_ASC_NODE":"260.0149","REV_AT_EPOCH":"8288","COUNTRY_CODE":"US","MEAN_MOTION_DOT":"0.00001456","CLASSIFICATION_TYPE":"U","NORAD_CAT_ID":"48472","PERIOD":"95.592","OBJECT_NAME":"STARLINK-2722","MEAN_MOTION_DDOT":"0.0000000000000","SITE":"AFETR","INCLINATION":"53.0551","MEAN_ANOMALY":"312.5276","TLE_LINE2":"2 48472  53.0551 260.0149 0001894  47.5873 312.5276 15.06401849 82884","RCS_SIZE":"LARGE","TLE_LINE1":"1 48472U 21040AW  22311.56236714  .00001456  00000-0  11665-3 0  9993","SEMIMAJOR_AXIS":"6925.343","ECCENTRICITY":"0.00018940","MEAN_ELEMENT_THEORY":"SGP4","DECAY_DATE":null,"REF_FRAME":"TEME","EPOCH":"2022-11-07T13:29:48.520896","BSTAR":"0.00011665000000","OBJECT_TYPE":"PAYLOAD"}];
